{
  "type": "FeatureCollection",
  "name": "major_maritime_ports_static_reference",
  "features": [
    { "type": "Feature", "properties": { "port_id": "ras-tanura", "name": "Ras Tanura", "country": "Saudi Arabia", "port_group": "tanker", "terminal_type": "crude oil export terminal", "commodity_links": ["crude oil"], "source_provider": "static_reference" }, "geometry": { "type": "Point", "coordinates": [50.16, 26.64] } },
    { "type": "Feature", "properties": { "port_id": "fujairah", "name": "Fujairah", "country": "United Arab Emirates", "port_group": "tanker", "terminal_type": "oil and bunker terminal", "commodity_links": ["crude oil", "refined products"], "source_provider": "static_reference" }, "geometry": { "type": "Point", "coordinates": [56.36, 25.13] } },
    { "type": "Feature", "properties": { "port_id": "al-basrah-oil-terminal", "name": "Basrah Oil", "country": "Iraq", "port_group": "tanker", "terminal_type": "crude oil export terminal", "commodity_links": ["crude oil"], "source_provider": "static_reference" }, "geometry": { "type": "Point", "coordinates": [48.80, 29.78] } },
    { "type": "Feature", "properties": { "port_id": "houston", "name": "Houston", "country": "United States", "port_group": "tanker", "terminal_type": "oil and products terminal", "commodity_links": ["crude oil", "refined products"], "source_provider": "static_reference" }, "geometry": { "type": "Point", "coordinates": [-95.01, 29.73] } },
    { "type": "Feature", "properties": { "port_id": "yanbu", "name": "Yanbu", "country": "Saudi Arabia", "port_group": "tanker", "terminal_type": "oil export terminal", "commodity_links": ["crude oil", "refined products"], "source_provider": "static_reference" }, "geometry": { "type": "Point", "coordinates": [38.10, 24.08] } },
    { "type": "Feature", "properties": { "port_id": "bonny", "name": "Bonny", "country": "Nigeria", "port_group": "tanker", "terminal_type": "oil and LNG terminal", "commodity_links": ["crude oil", "LNG"], "source_provider": "static_reference" }, "geometry": { "type": "Point", "coordinates": [7.17, 4.43] } },
    { "type": "Feature", "properties": { "port_id": "ras-laffan", "name": "Ras Laffan", "country": "Qatar", "port_group": "lng_carrier", "terminal_type": "LNG export terminal", "commodity_links": ["LNG"], "source_provider": "static_reference" }, "geometry": { "type": "Point", "coordinates": [51.51, 25.93] } },
    { "type": "Feature", "properties": { "port_id": "sabine-pass", "name": "Sabine Pass", "country": "United States", "port_group": "lng_carrier", "terminal_type": "LNG export terminal", "commodity_links": ["LNG"], "source_provider": "static_reference" }, "geometry": { "type": "Point", "coordinates": [-93.87, 29.73] } },
    { "type": "Feature", "properties": { "port_id": "gladstone", "name": "Gladstone", "country": "Australia", "port_group": "lng_carrier", "terminal_type": "LNG export terminal", "commodity_links": ["LNG"], "source_provider": "static_reference" }, "geometry": { "type": "Point", "coordinates": [151.25, -23.84] } },
    { "type": "Feature", "properties": { "port_id": "sabetta", "name": "Sabetta", "country": "Russia", "port_group": "lng_carrier", "terminal_type": "LNG export terminal", "commodity_links": ["LNG"], "source_provider": "static_reference" }, "geometry": { "type": "Point", "coordinates": [72.05, 71.28] } },
    { "type": "Feature", "properties": { "port_id": "shanghai", "name": "Shanghai", "country": "China", "port_group": "container", "terminal_type": "container port", "commodity_links": ["containers"], "source_provider": "static_reference" }, "geometry": { "type": "Point", "coordinates": [121.50, 31.20] } },
    { "type": "Feature", "properties": { "port_id": "singapore", "name": "Singapore", "country": "Singapore", "port_group": "container", "terminal_type": "container and bunker port", "commodity_links": ["containers", "refined products"], "source_provider": "static_reference" }, "geometry": { "type": "Point", "coordinates": [103.80, 1.25] } },
    { "type": "Feature", "properties": { "port_id": "ningbo-zhoushan", "name": "Ningbo", "country": "China", "port_group": "container", "terminal_type": "container port", "commodity_links": ["containers"], "source_provider": "static_reference" }, "geometry": { "type": "Point", "coordinates": [121.85, 29.87] } },
    { "type": "Feature", "properties": { "port_id": "shenzhen-yantian", "name": "Shenzhen", "country": "China", "port_group": "container", "terminal_type": "container port", "commodity_links": ["containers"], "source_provider": "static_reference" }, "geometry": { "type": "Point", "coordinates": [114.27, 22.58] } },
    { "type": "Feature", "properties": { "port_id": "rotterdam", "name": "Rotterdam", "country": "Netherlands", "port_group": "container", "terminal_type": "container and energy port", "commodity_links": ["containers", "refined products"], "source_provider": "static_reference" }, "geometry": { "type": "Point", "coordinates": [4.25, 51.95] } },
    { "type": "Feature", "properties": { "port_id": "los-angeles-long-beach", "name": "LA/LB", "country": "United States", "port_group": "container", "terminal_type": "container port", "commodity_links": ["containers"], "source_provider": "static_reference" }, "geometry": { "type": "Point", "coordinates": [-118.25, 33.74] } },
    { "type": "Feature", "properties": { "port_id": "busan", "name": "Busan", "country": "South Korea", "port_group": "container", "terminal_type": "container port", "commodity_links": ["containers"], "source_provider": "static_reference" }, "geometry": { "type": "Point", "coordinates": [129.05, 35.10] } },
    { "type": "Feature", "properties": { "port_id": "jebel-ali", "name": "Jebel Ali", "country": "United Arab Emirates", "port_group": "container", "terminal_type": "container port", "commodity_links": ["containers"], "source_provider": "static_reference" }, "geometry": { "type": "Point", "coordinates": [55.06, 25.01] } },
    { "type": "Feature", "properties": { "port_id": "port-hedland", "name": "Port Hedland", "country": "Australia", "port_group": "dry_bulk", "terminal_type": "iron ore export port", "commodity_links": ["iron ore"], "source_provider": "static_reference" }, "geometry": { "type": "Point", "coordinates": [118.58, -20.31] } },
    { "type": "Feature", "properties": { "port_id": "dampier", "name": "Dampier", "country": "Australia", "port_group": "dry_bulk", "terminal_type": "bulk and LNG export port", "commodity_links": ["iron ore", "LNG"], "source_provider": "static_reference" }, "geometry": { "type": "Point", "coordinates": [116.75, -20.64] } },
    { "type": "Feature", "properties": { "port_id": "tubarao", "name": "Tubarao", "country": "Brazil", "port_group": "dry_bulk", "terminal_type": "iron ore export port", "commodity_links": ["iron ore"], "source_provider": "static_reference" }, "geometry": { "type": "Point", "coordinates": [-40.24, -20.29] } },
    { "type": "Feature", "properties": { "port_id": "newcastle-au", "name": "Newcastle", "country": "Australia", "port_group": "dry_bulk", "terminal_type": "coal export port", "commodity_links": ["coal"], "source_provider": "static_reference" }, "geometry": { "type": "Point", "coordinates": [151.78, -32.93] } },
    { "type": "Feature", "properties": { "port_id": "qingdao", "name": "Qingdao", "country": "China", "port_group": "dry_bulk", "terminal_type": "bulk and container port", "commodity_links": ["iron ore", "containers"], "source_provider": "static_reference" }, "geometry": { "type": "Point", "coordinates": [120.32, 36.06] } },
    { "type": "Feature", "properties": { "port_id": "richards-bay", "name": "Richards Bay", "country": "South Africa", "port_group": "dry_bulk", "terminal_type": "coal export port", "commodity_links": ["coal"], "source_provider": "static_reference" }, "geometry": { "type": "Point", "coordinates": [32.04, -28.80] } },
    { "type": "Feature", "properties": { "port_id": "ponta-da-madeira", "name": "Ponta Madeira", "country": "Brazil", "port_group": "dry_bulk", "terminal_type": "iron ore export port", "commodity_links": ["iron ore"], "source_provider": "static_reference" }, "geometry": { "type": "Point", "coordinates": [-44.31, -2.57] } }
  ]
}
